NORAD_CAT_ID,OBJECT_NAME,OBJECT_TYPE,EPOCH,MEAN_MOTION,ECCENTRICITY,INCLINATION,RA_OF_ASC_NODE,ARG_OF_PERICENTER,MEAN_ANOMALY,BSTAR,MEAN_MOTION_DOT,MEAN_MOTION_DDOT,TLE_LINE0,TLE_LINE1,TLE_LINE2,SEMIMAJOR_AXIS,PERIOD,APOGEE,PERIGEE,DECAYED
51977.0,STARLINK-3660,PAYLOAD,2024-05-01 10:42:03,15.08850844,0.0001625,53.2153,179.3944,70.3099,289.8068,0.00015876,2.24e-05,0.0,0 STARLINK-3660,1 51977U 22025X   24122.44587174  .00002240  00000-0  15876-3 0  9999,2 51977  53.2153 179.3944 0001625  70.3099 289.8068 15.08850844119093,6917.847,95.437,540.836,538.588,0.0
51977.0,STARLINK-3660,PAYLOAD,2024-05-01 20:14:22,15.08845783,0.0001509,53.2143,177.6088,63.5442,296.5705,3.4415e-05,2.6e-06,0.0,0 STARLINK-3660,1 51977U 22025X   24122.84331230  .00000260  00000-0  34415-4 0  9994,2 51977  53.2143 177.6088 0001509  63.5442 296.5705 15.08845783120247,6917.863,95.437,540.772,538.684,0.0
51977.0,STARLINK-3660,PAYLOAD,2024-05-02 10:32:50,15.08841373,0.0001495,53.2167,174.9363,73.7606,286.355,-5.4895e-06,-3.75e-06,0.0,0 STARLINK-3660,1 51977U 22025X   24123.43947858 -.00000375  00000-0 -54895-5 0  9993,2 51977  53.2167 174.9363 0001495  73.7606 286.3550 15.08841373120334,6917.876,95.437,540.775,538.707,0.0
51977.0,STARLINK-3660,PAYLOAD,2024-05-03 10:23:36,15.08852353,0.0001497,53.2152,170.476,76.645,283.4709,0.00020925,3.045e-05,0.0,0 STARLINK-3660,1 51977U 22025X   24124.43306693  .00003045  00000-0  20925-3 0  9990,2 51977  53.2152 170.4760 0001497  76.6450 283.4709 15.08852353120481,6917.843,95.437,540.743,538.672,0.0
51977.0,STARLINK-3660,PAYLOAD,2024-05-03 19:55:56,15.08842419,0.0001248,53.2155,168.6923,84.0622,276.0512,9.2926e-05,1.191e-05,0.0,0 STARLINK-3660,1 51977U 22025X   24124.83051060  .00001191  00000-0  92926-4 0  9990,2 51977  53.2155 168.6923 0001248  84.0622 276.0512 15.08842419120541,6917.873,95.437,540.601,538.875,0.0
51977.0,STARLINK-3660,PAYLOAD,2024-05-04 11:49:49,15.08824894,0.0001615,53.2156,165.7155,79.004,281.1134,-3.0171e-05,-7.68e-06,0.0,0 STARLINK-3660,1 51977U 22025X   24125.49293226 -.00000768  00000-0 -30171-4 0  9990,2 51977  53.2156 165.7155 0001615  79.0040 281.1134 15.08824894120648,6917.927,95.439,540.909,538.674,0.0
51977.0,STARLINK-3660,PAYLOAD,2024-05-05 02:08:16,15.08838241,0.0001403,53.2154,163.0413,91.6041,268.5112,5.6602e-06,-1.98e-06,0.0,0 STARLINK-3660,1 51977U 22025X   24126.08908484 -.00000198  00000-0  56602-5 0  9999,2 51977  53.2154 163.0413 0001403  91.6041 268.5112 15.08838241120736,6917.886,95.438,540.721,538.78,0.0
51977.0,STARLINK-3660,PAYLOAD,2024-05-05 11:40:35,15.08841193,0.00016,53.2177,161.256,81.9338,278.1836,1.0034e-05,-1.28e-06,0.0,0 STARLINK-3660,1 51977U 22025X   24126.48652530 -.00000128  00000-0  10034-4 0  9992,2 51977  53.2177 161.2560 0001600  81.9338 278.1836 15.08841193119709,6917.877,95.437,540.849,538.635,0.0
51977.0,STARLINK-3660,PAYLOAD,2024-05-05 19:37:30,15.0884876,0.0001444,53.2163,159.7691,88.855,271.2608,1.0143e-05,-1.27e-06,0.0,0 STARLINK-3660,1 51977U 22025X   24126.81771893 -.00000127  00000-0  10143-4 0  9993,2 51977  53.2163 159.7691 0001444  88.8550 271.2608 15.08848760120844,6917.854,95.437,540.718,538.72,0.0
51977.0,STARLINK-3660,PAYLOAD,2024-05-06 01:59:03,15.08837797,0.0001395,53.2162,158.5793,90.7017,269.4135,0.00027563,4.101e-05,0.0,0 STARLINK-3660,1 51977U 22025X   24127.08268330  .00004101  00000-0  27563-3 0  9998,2 51977  53.2162 158.5793 0001395  90.7017 269.4135 15.08837797120884,6917.887,95.438,540.717,538.787,0.0
51977.0,STARLINK-3660,PAYLOAD,2024-05-06 08:20:36,15.08847537,0.0001366,53.2148,157.3901,90.181,269.9339,0.00044429,6.791e-05,0.0,0 STARLINK-3660,1 51977U 22025X   24127.34764391  .00006791  00000-0  44429-3 0  9992,2 51977  53.2148 157.3901 0001366  90.1810 269.9339 15.08847537119836,6917.857,95.437,540.667,538.777,0.0
51977.0,STARLINK-3660,PAYLOAD,2024-05-06 19:28:18,15.08852242,0.0001361,53.2146,155.3089,87.9515,272.1633,0.00038349,5.823e-05,0.0,0 STARLINK-3660,1 51977U 22025X   24127.81132089  .00005823  00000-0  38349-3 0  9996,2 51977  53.2146 155.3089 0001361  87.9515 272.1633 15.08852242119900,6917.843,95.437,540.649,538.766,0.0
51977.0,STARLINK-3660,PAYLOAD,2024-05-07 05:00:36,15.08851712,0.0001452,53.2149,153.5243,90.2762,269.8397,0.00026261,3.895e-05,0.0,0 STARLINK-3660,1 51977U 22025X   24128.20875987  .00003895  00000-0  26261-3 0  9998,2 51977  53.2149 153.5243 0001452  90.2762 269.8397 15.08851712121057,6917.845,95.437,540.714,538.705,0.0
51977.0,STARLINK-3660,PAYLOAD,2024-05-07 11:22:09,15.08852828,0.0001457,53.2148,152.3342,93.3693,266.7466,0.00023076,3.388e-05,0.0,0 STARLINK-3660,1 51977U 22025X   24128.47371718  .00003388  00000-0  23076-3 0  9998,2 51977  53.2148 152.3342 0001457  93.3693 266.7466 15.08852828120001,6917.841,95.437,540.714,538.698,0.0
51977.0,STARLINK-3660,PAYLOAD,2024-05-08 04:51:23,15.08842054,0.0001435,53.2137,149.0603,94.5679,265.5477,1.1785e-05,-1e-06,0.0,0 STARLINK-3660,1 51977U 22025X   24129.20236079 -.00000100  00000-0  11785-4 0  9995,2 51977  53.2137 149.0603 0001435  94.5679 265.5477 15.08842054121207,6917.874,95.437,540.732,538.746,0.0
51977.0,STARLINK-3660,PAYLOAD,2024-05-08 11:12:56,15.08842025,0.0001281,53.2146,147.8743,93.3,266.8138,2.0149e-05,3.3e-07,0.0,0 STARLINK-3660,1 51977U 22025X   24129.46732152  .00000033  00000-0  20149-4 0  9994,2 51977  53.2146 147.8743 0001281  93.3000 266.8138 15.08842025120151,6917.874,95.437,540.625,538.853,0.0
51977.0,STARLINK-3660,PAYLOAD,2024-05-09 07:52:57,15.0884519,0.0001232,53.2145,144.0087,92.2669,267.8464,0.00013896,1.925e-05,0.0,0 STARLINK-3660,1 51977U 22025X   24130.32844027  .00001925  00000-0  13896-3 0  9997,2 51977  53.2145 144.0087 0001232  92.2669 267.8464 15.08845190121379,6917.865,95.437,540.582,538.877,0.0
51977.0,STARLINK-3660,PAYLOAD,2024-05-09 17:25:15,15.08848338,0.0001188,53.2143,142.2246,91.1627,268.9501,0.00016985,2.417e-05,0.0,0 STARLINK-3660,1 51977U 22025X   24130.72587928  .00002417  00000-0  16985-3 0  9994,2 51977  53.2143 142.2246 0001188  91.1627 268.9501 15.08848338120343,6917.855,95.437,540.542,538.898,0.0
51977.0,STARLINK-3660,PAYLOAD,2024-05-10 07:43:44,15.08847402,0.0001199,53.2147,139.548,91.3651,268.7478,0.00024731,3.651e-05,0.0,0 STARLINK-3660,1 51977U 22025X   24131.32203958  .00003651  00000-0  24731-3 0  9998,2 51977  53.2147 139.5480 0001199  91.3651 268.7478 15.08847402120439,6917.858,95.437,540.552,538.893,0.0
51977.0,STARLINK-3660,PAYLOAD,2024-05-10 17:16:03,15.08844724,0.0001213,53.2147,137.764,91.2324,268.8807,0.00014708,2.054e-05,0.0,0 STARLINK-3660,1 51977U 22025X   24131.71947968  .00002054  00000-0  14708-3 0  9996,2 51977  53.2147 137.7640 0001213  91.2324 268.8807 15.08844724121588,6917.866,95.437,540.57,538.892,0.0
51977.0,STARLINK-3660,PAYLOAD,2024-05-11 04:23:45,15.08836932,0.0001282,53.2158,135.6826,90.6289,269.485,-2.1222e-05,-6.26e-06,0.0,0 STARLINK-3660,1 51977U 22025X   24132.18316345 -.00000626  00000-0 -21222-4 0  9992,2 51977  53.2158 135.6826 0001282  90.6289 269.4850 15.08836932121657,6917.89,95.438,540.642,538.868,0.0
51977.0,STARLINK-3660,PAYLOAD,2024-05-11 17:06:49,15.08861577,0.0001569,53.2163,133.3035,83.5401,276.577,0.00035383,5.351e-05,0.0,0 STARLINK-3660,1 51977U 22025X   24132.71307124  .00005351  00000-0  35383-3 0  9996,2 51977  53.2163 133.3035 0001569  83.5401 276.5770 15.08861577121737,6917.814,95.436,540.765,538.594,0.0
51977.0,STARLINK-3660,PAYLOAD,2024-05-12 05:49:54,15.08856069,0.0001886,53.2173,130.9259,84.0767,276.044,0.0003012,4.511e-05,0.0,0 STARLINK-3660,1 51977U 22025X   24133.24299179  .00004511  00000-0  30120-3 0  9996,2 51977  53.2173 130.9259 0001886  84.0767 276.0440 15.08856069121810,6917.831,95.437,541.001,538.392,0.0
51977.0,STARLINK-3660,PAYLOAD,2024-05-12 09:00:40,15.08855851,0.0001667,53.2156,130.3295,80.7764,279.3417,0.0002975,4.452e-05,0.0,0 STARLINK-3660,1 51977U 22025X   24133.37547028  .00004452  00000-0  29750-3 0  9990,2 51977  53.2156 130.3295 0001667  80.7764 279.3417 15.08855851120741,6917.832,95.437,540.85,538.544,0.0
51977.0,STARLINK-3660,PAYLOAD,2024-05-12 16:57:37,15.08829379,0.0001907,53.2164,128.8459,71.9261,288.1939,-0.00035155,-5.877e-05,0.0,0 STARLINK-3660,1 51977U 22025X   24133.70667938 -.00005877  00000-0 -35155-3 0  9990,2 51977  53.2164 128.8459 0001907  71.9261 288.1939 15.08829379121884,6917.913,95.438,541.097,538.459,0.0
51977.0,STARLINK-3660,PAYLOAD,2024-05-13 05:40:43,15.08804305,0.0001474,53.2161,126.464,72.4237,287.6916,-0.00060243,-9.853e-05,0.0,0 STARLINK-3660,1 51977U 22025X   24134.23661530 -.00009853  00000-0 -60243-3 0  9995,2 51977  53.2161 126.4640 0001474  72.4237 287.6916 15.08804305121965,6917.989,95.44,540.874,538.835,0.0
51977.0,STARLINK-3660,PAYLOAD,2024-05-13 08:51:30,15.08804432,0.0001552,53.2158,125.8698,71.3156,288.8004,-0.00050176,-8.257e-05,0.0,0 STARLINK-3660,1 51977U 22025X   24134.36909840 -.00008257  00000-0 -50176-3 0  9999,2 51977  53.2158 125.8698 0001552  71.3156 288.8004 15.08804432120895,6917.989,95.44,540.928,538.78,0.0
51977.0,STARLINK-3660,PAYLOAD,2024-05-13 16:48:25,15.0881784,0.0001482,53.2162,124.3831,71.2158,288.8995,1.9941e-05,2.9e-07,0.0,0 STARLINK-3660,1 51977U 22025X   24134.70030039  .00000029  00000-0  19941-4 0  9995,2 51977  53.2162 124.3831 0001482  71.2158 288.8995 15.08817840122030,6917.948,95.439,540.838,538.788,0.0
51977.0,STARLINK-3660,PAYLOAD,2024-05-13 23:09:58,15.08828173,8.89e-05,53.2161,123.1924,63.5697,296.5387,3.7401e-05,3.07e-06,0.0,0 STARLINK-3660,1 51977U 22025X   24134.96525765  .00000307  00000-0  37401-4 0  9998,2 51977  53.2161 123.1924 0000889  63.5697 296.5387 15.08828173120985,6917.917,95.438,540.397,539.167,0.0
51977.0,STARLINK-3660,PAYLOAD,2024-05-14 05:31:30,15.08838554,0.0001315,53.2159,122.004,59.9722,300.14,0.00021011,3.057e-05,0.0,0 STARLINK-3660,1 51977U 22025X   24135.23021550  .00003057  00000-0  21011-3 0  9996,2 51977  53.2159 122.0040 0001315  59.9722 300.1400 15.08838554122111,6917.885,95.438,540.66,538.84,0.0
